# From MPEC 2021-W31
186P/Garradd,e,28.7067,326.4550,270.2248,4.862108,0.0919321,0.12353372,122.0993,08/29.0/2022,2000,g  7.5,4.0
# From MPEC 2020-SI8
187P/LINEAR,e,13.6352,109.8987,131.4828,4.566299,0.1010084,0.15216984,158.5960,08/29.0/2022,2000,g  9.0,4.0
# From MPEC 2022-K19
188P/LINEAR-Mueller,e,10.5263,358.9672,26.6035,4.371559,0.1078325,0.41662794,217.3726,08/29.0/2022,2000,g 11.5,4.0
# From MPEC 2022-QD9
189P/NEAT,e,20.0686,281.7167,16.3299,2.945492,0.1949698,0.58868898,0.0302,08/29.0/2022,2000,g 19.0,4.0
# From MPEC 2020-K19
190P/Mueller,e,2.1740,335.5526,50.3585,4.231467,0.1132316,0.52207951,263.9763,08/29.0/2022,2000,g 13.0,4.0
# From MPEC 2022-C56
191P/McNaught,e,8.8408,98.2280,284.0903,3.636776,0.1421115,0.38600866,74.8434,08/29.0/2022,2000,g 13.0,4.0
# From MPC 75724
192P/Shoemaker-Levy,e,24.5818,51.6103,313.0353,6.470353,0.0598842,0.77346605,322.0143,08/29.0/2022,2000,g 15.0,4.0
# From MPEC 2022-K19
193P/LINEAR-NEAT,e,10.6883,335.1736,8.0857,3.576421,0.1457240,0.39376022,53.7458,08/29.0/2022,2000,g 14.0,4.0
# From MPC 98566
194P/LINEAR,e,11.8927,349.6400,128.6662,4.125579,0.1176188,0.56667366,298.4778,08/29.0/2022,2000,g 16.0,4.0
# From MPEC 2021-S45
195P/Hill,e,36.3343,243.1230,249.2432,6.507333,0.0593744,0.31416287,296.9034,08/29.0/2022,2000,g  8.5,4.0
# From MPEC 2022-PB4
196P/Tichy,e,19.3003,24.1116,12.0596,3.806668,0.1327048,0.42855058,351.8558,08/29.0/2022,2000,g 13.5,4.0
# From MPC 94676
197P/LINEAR,e,25.5278,66.3633,188.7491,2.867991,0.2029259,0.62936821,339.5602,08/29.0/2022,2000,g 16.5,2.0
# From NK 1596
198P/ODAS,e,1.3385,358.2350,69.1866,3.596922,0.1444799,0.44407000,195.5690,08/29.0/2022,2000,g  9.0,4.0
# From MPEC 2022-N37
199P/Shoemaker,e,24.9335,92.3544,191.7554,5.886436,0.0690121,0.50557893,336.2940,08/29.0/2022,2000,g 10.0,4.0
# From MPEC 2022-C56
200P/Larsen,e,12.0979,234.7538,134.2524,4.944999,0.0896303,0.33269269,100.9303,08/29.0/2022,2000,g  9.0,4.0
# From MPC 93588
201P/LONEOS,e,5.7397,19.7453,41.5425,3.354569,0.1604165,0.63723787,73.6722,08/29.0/2022,2000,g 14.0,4.0
# From MPEC 2022-K19
202P/Scotti,e,2.1282,177.3375,275.6357,4.106094,0.1184570,0.25865214,285.3504,08/29.0/2022,2000,g 13.5,4.0
# From MPEC 2021-S45
203P/Korlevic,e,2.9727,290.3080,154.7721,4.669744,0.0976707,0.31553905,88.6137,08/29.0/2022,2000,g 14.5,2.0
# From MPEC 2022-QD9
204P/LINEAR-NEAT,e,6.5962,108.5001,356.6466,3.581136,0.1454363,0.48776439,348.3849,08/29.0/2022,2000,g 14.0,4.0
# From MPEC 2022-K19
205P/Giacobini,e,15.3062,179.6024,154.1705,3.542290,0.1478352,0.56807524,33.6066,08/29.0/2022,2000,g 13.0,4.0
# From MPC 75725
206P/Barnard-Boattini,e,33.6382,202.3328,189.5171,3.489489,0.1512033,0.55151187,82.0121,08/29.0/2022,2000,g 19.0,4.0
# From MPC 75725
207P/NEAT,e,10.1988,198.1794,273.0555,3.877153,0.1291025,0.75853117,292.7629,08/29.0/2022,2000,g 16.0,4.0
# From MPEC 2022-K19
208P/McMillan,e,4.4124,36.3396,310.5580,4.042798,0.1212498,0.37415503,272.0347,08/29.0/2022,2000,g 12.5,4.0
# From MPC 90771
209P/LINEAR,e,21.2602,62.7694,152.4396,2.959914,0.1935465,0.67317996,227.2335,08/29.0/2022,2000,g 17.0,2.0
# From MPC105242
210P/Christensen,e,10.2704,93.8115,345.8954,3.163264,0.1751866,0.83350870,152.9423,08/29.0/2022,2000,g 13.5,4.0
# From MPEC 2022-ED3
211P/Hill,e,18.9207,117.1320,4.2769,3.546764,0.1475556,0.34373547,354.6003,08/29.0/2022,2000,g 12.5,4.0
# From MPEC 2021-F20
212P/NEAT,e,22.1601,98.1162,14.0578,3.896423,0.1281460,0.58716386,282.4485,08/29.0/2022,2000,g 17.0,2.0
# From MPEC 2022-GA9
213P/Van Ness,e,10.3809,311.2885,5.7281,3.346762,0.1609781,0.40820926,289.2276,08/29.0/2022,2000,g 10.5,4.0
# From MPC 92986
214P/LINEAR,e,15.1833,348.2491,190.1855,3.620044,0.1430979,0.48592405,355.9610,08/29.0/2022,2000,g 13.0,4.0
# From MPEC 2022-F14
215P/NEAT,e,10.5781,56.6824,262.3563,4.330237,0.1093797,0.16639384,110.8602,08/29.0/2022,2000,g 11.0,4.0
# From MPC100284
216P/LINEAR,e,9.0650,359.8121,151.5662,3.861450,0.1298908,0.44841622,295.6213,08/29.0/2022,2000,g 13.0,4.0
# From MPEC 2021-N06
217P/LINEAR,e,12.8625,125.4457,246.9058,3.949105,0.1255903,0.68923379,234.4535,08/29.0/2022,2000,g 12.0,4.0
# From MPEC 2022-K19
218P/LINEAR,e,2.7298,175.9948,59.6134,3.089639,0.1814857,0.62266407,125.9827,08/29.0/2022,2000,g 16.0,4.0
# From MPC100284
219P/LINEAR,e,11.5379,230.9517,107.5447,3.647467,0.1414871,0.35415612,284.5066,08/29.0/2022,2000,g 11.0,4.0
# From MPEC 2021-BE3
220P/McNaught,e,8.1286,150.1029,180.5892,3.117137,0.1790895,0.50152910,112.1777,08/29.0/2022,2000,g 15.0,4.0
# From MPEC 2021-J28
221P/LINEAR,e,11.4312,229.6644,40.1748,3.458873,0.1532153,0.49319898,38.8918,08/29.0/2022,2000,g 14.5,4.0
# From MPC 92277
222P/LINEAR,e,5.0985,6.7761,346.2703,2.898920,0.1996869,0.71480270,235.6404,08/29.0/2022,2000,g 20.0,4.0
# From MPEC 2021-S45
223P/Skiff,e,27.0259,346.7700,37.8388,4.158725,0.1162154,0.41643781,152.0761,08/29.0/2022,2000,g 12.0,4.0
# From MPC 75727
224P/LINEAR-NEAT,e,13.3056,40.0382,16.6660,3.444147,0.1541990,0.40594991,355.0714,08/29.0/2022,2000,g 15.5,4.0
# From MPC 75727
225P/LINEAR,e,21.3668,14.2047,3.9022,3.648439,0.1414306,0.63843840,311.3382,08/29.0/2022,2000,g 18.0,4.0
# From MPC106349
226P/Pigott-LINEAR-Kowalski,e,44.0421,54.0097,341.0602,3.766465,0.1348352,0.52889898,294.5680,08/29.0/2022,2000,g 12.5,4.0
# From MPC102956
227P/Catalina-LINEAR,e,7.4477,37.0770,104.7937,3.460547,0.1531042,0.53035330,275.0561,08/29.0/2022,2000,g 16.5,2.0
# From MPEC 2022-HC2
228P/LINEAR,e,7.9131,30.9861,114.9344,4.167746,0.1158383,0.17624292,104.6648,08/29.0/2022,2000,g 14.1,4.0
# From MPC106349
229P/Gibbs,e,26.0921,157.9088,224.0265,3.927245,0.1266403,0.37779071,243.5627,08/29.0/2022,2000,g 13.0,4.0
# From MPEC 2022-GA9
230P/LINEAR,e,15.4696,106.9837,313.4397,3.451779,0.1536879,0.54550205,24.9975,08/29.0/2022,2000,g 13.0,4.0
# From MPEC 2022-K19
231P/LINEAR-NEAT,e,12.3083,132.9994,44.1460,4.043712,0.1212087,0.24399338,141.7763,08/29.0/2022,2000,g 14.5,2.0
# From MPC112394
232P/Hill,e,14.6410,56.0203,53.2673,4.476173,0.1040744,0.33454575,129.1981,08/29.0/2022,2000,g 11.5,4.0
# From MPEC 2021-N06
233P/La Sagra,e,11.2872,74.9151,26.9781,3.028921,0.1869701,0.41204275,130.2031,08/29.0/2022,2000,g 15.0,4.0
# From MPEC 2022-K19
234P/LINEAR,e,11.5357,179.5727,357.2571,3.797557,0.1331826,0.25606891,255.2553,08/29.0/2022,2000,g 12.0,4.0
# From MPC110497
235P/LINEAR,e,9.2488,202.4795,333.7573,3.923193,0.1268366,0.33754103,204.2329,08/29.0/2022,2000,g 12.0,4.0
# From MPC107688
236P/LINEAR,e,16.3466,245.5819,119.3126,3.728620,0.1368932,0.50936250,238.2311,08/29.0/2022,2000,g 14.0,4.0
# From MPEC 2022-K19
237P/LINEAR,e,14.0153,245.3629,25.2543,3.511786,0.1497656,0.43419239,321.2608,08/29.0/2022,2000,g 14.5,2.0
# From MPEC 2022-PB4
238P/Read,e,1.2640,51.6256,324.2106,3.166393,0.1749270,0.25171744,14.7907,08/29.0/2022,2000,g 14.5,4.0
# From MPEC 2021-F20
239P/LINEAR,e,11.3012,255.9224,220.3868,4.468196,0.1043532,0.63020964,138.5649,08/29.0/2022,2000,g 17.5,2.0
# From MPEC 2021-F20
240P/NEAT,e,23.5251,74.9075,351.9447,3.864781,0.1297229,0.44962611,203.1239,08/29.0/2022,2000,g 12.1,4.0
# From MPEC 2022-J42
241P/LINEAR,e,21.1036,305.4801,111.4494,4.920286,0.0903064,0.61026960,36.0414,08/29.0/2022,2000,g 13.5,4.0
# From MPEC 2021-S45
242P/Spahr,e,32.5102,180.3752,245.5340,5.498131,0.0764507,0.27879036,294.8068,08/29.0/2022,2000,g  8.0,4.0
# From MPEC 2022-K19
243P/NEAT,e,7.6409,87.6074,283.6097,3.830084,0.1314897,0.36056984,192.2704,08/29.0/2022,2000,g 12.5,4.0
# From MPEC 2022-ED3
244P/Scotti,e,2.2594,353.9917,93.0900,4.895609,0.0909901,0.19919783,352.7096,08/29.0/2022,2000,g  9.0,4.0
# From MPEC 2022-CN4
245P/WISE,e,21.1923,316.6604,316.8725,4.046760,0.1210718,0.45637944,201.3927,08/29.0/2022,2000,g 14.0,4.0
# From MPEC 2022-QD9
246P/NEAT,e,15.9680,78.4301,177.0585,4.033252,0.1216805,0.28935435,66.9002,08/29.0/2022,2000,g 10.5,4.0
# From MPEC 2021-F20
247P/LINEAR,e,13.6576,54.0233,47.4164,3.967814,0.1247031,0.62451435,170.4347,08/29.0/2022,2000,g 16.5,2.0
# From MPC 75730
248P/Gibbs,e,6.3509,207.8054,209.8549,5.990692,0.0672185,0.63894525,285.1762,08/29.0/2022,2000,g 14.0,4.0
# From MPEC 2021-S45
249P/LINEAR,e,8.3880,239.1019,65.7132,2.763490,0.2145445,0.81982553,169.6042,08/29.0/2022,2000,g 15.5,4.0
# From MPC110497
250P/Larson,e,13.1530,73.3873,46.1242,3.767298,0.1347905,0.39913086,226.1590,08/29.0/2022,2000,g 14.5,4.0
# From MPC104795
251P/LINEAR,e,23.3865,219.3509,31.2726,3.512373,0.1497281,0.50457417,280.1548,08/29.0/2022,2000,g 16.5,2.0
# From MPEC 2021-S45
252P/LINEAR,e,10.4119,190.9235,343.3679,3.050465,0.1849928,0.67157766,76.5482,08/29.0/2022,2000,g 17.5,4.0
# From MPEC 2020-FB5
253P/PANSTARRS,e,4.9435,146.8833,230.6846,3.465026,0.1528074,0.41446664,240.2299,08/29.0/2022,2000,g 14.5,4.0
# From MPEC 2022-K19
254P/McNaught,e,32.5693,129.1815,219.6213,4.614796,0.0994203,0.31975058,69.3704,08/29.0/2022,2000,g 11.0,4.0
# From MPEC 2021-UA9
255P/Levy,e,13.4110,275.6652,186.0130,2.942035,0.1953135,0.71151362,358.1842,08/29.0/2022,2000,g 14.1,4.0
# From MPEC 2022-C56
256P/LINEAR,e,27.6189,81.3369,124.2054,4.639395,0.0986307,0.41798369,340.7374,08/29.0/2022,2000,g 14.0,2.0
# From MPEC 2021-Y10
257P/Catalina,e,20.2200,207.7206,117.7355,3.763597,0.1349893,0.43018804,96.8249,08/29.0/2022,2000,g 11.5,4.0
# From MPEC 2021-U31
258P/PANSTARRS,e,6.7465,126.2405,25.8240,4.395194,0.1069639,0.20841023,85.8071,08/29.0/2022,2000,g 13.0,4.0
# From MPC106349
259P/Garradd,e,15.8934,51.4323,257.6188,2.730716,0.2184185,0.33888999,44.0496,08/29.0/2022,2000,g 15.5,4.0
# From MPEC 2022-O01
260P/McNaught,e,15.0581,349.3382,18.4336,3.623203,0.1429108,0.60935222,154.8254,08/29.0/2022,2000,g 13.5,4.0
# From MPEC 2021-J28
261P/Larson,e,6.0727,291.1278,67.2332,3.490460,0.1511402,0.42335694,176.2994,08/29.0/2022,2000,g 14.0,4.0
# From MPC 82322
262P/McNaught-Russell,e,29.2770,217.8662,171.0454,6.872202,0.0547092,0.81620905,194.4515,08/29.0/2022,2000,g 13.5,4.0
# From MPC 89018
263P/Gibbs,e,11.5217,105.5126,35.0297,3.041976,0.1857677,0.59355431,331.2853,08/29.0/2022,2000,g  9.0,4.0
# From MPC114608
